{"type": "FeatureCollection", "features": [ {"type": "Feature", "properties": {"norad_id": 33867, "name": "IRIDIUM 33 DEB", "group": "iridium-33-debris", "lat": 34.7490120326068, "lon": 168.74695883671754, "alt_km": 371.0348506262935, "timestamp": "2025-12-10T11:33:53.769104+00:00", "meta": {"OBJECT_NAME": "IRIDIUM 33 DEB", "OBJECT_ID": "1997-051AL", "EPOCH": "2025-12-10T01:43:40.843200", "MEAN_MOTION": 15.62710482, "ECCENTRICITY": 0.0013084, "INCLINATION": 86.3647, "RA_OF_ASC_NODE": 351.486, "ARG_OF_PERICENTER": 90.2976, "MEAN_ANOMALY": 269.979, "EPHEMERIS_TYPE": 0, "CLASSIFICATION_TYPE": "U", "NORAD_CAT_ID": 33867, "ELEMENT_SET_NO": 999, "REV_AT_EPOCH": 89469, "BSTAR": 0.0085299, "MEAN_MOTION_DOT": 0.0083324, "MEAN_MOTION_DDOT": 0}, "tle": {"line1": "1 33867U 97051AL  25344.07200050  .00833240  00000+0  85299-2 0  9995", "line2": "2 33867  86.3647 351.4860 0013084  90.2976 269.9790 15.62710482894693"}}, "geometry": {"type": "Point", "coordinates": [168.74695883671754, 34.7490120326068]}}, {"type": "Feature", "properties": {"norad_id": 33870, "name": "IRIDIUM 33 DEB", "group": "iridium-33-debris", "lat": 78.17970663809406, "lon": -138.40682324130492, "alt_km": 730.5256505053349, "timestamp": "2025-12-10T11:33:53.769115+00:00", "meta": {"OBJECT_NAME": "IRIDIUM 33 DEB", "OBJECT_ID": "1997-051AP", "EPOCH": "2025-12-10T04:43:00.329376", "MEAN_MOTION": 14.45829008, "ECCENTRICITY": 0.0021199, "INCLINATION": 86.3745, "RA_OF_ASC_NODE": 59.3507, "ARG_OF_PERICENTER": 186.3875, "MEAN_ANOMALY": 230.8437, "EPHEMERIS_TYPE": 0, "CLASSIFICATION_TYPE": "U", "NORAD_CAT_ID": 33870, "ELEMENT_SET_NO": 999, "REV_AT_EPOCH": 88100, "BSTAR": 0.0011395, "MEAN_MOTION_DOT": 4.073e-05, "MEAN_MOTION_DDOT": 0}, "tle": {"line1": "1 33870U 97051AP  25344.19653159  .00004073  00000+0  11395-2 0  9994", "line2": "2 33870  86.3745  59.3507 0021199 186.3875 230.8437 14.45829008881000"}}, "geometry": {"type": "Point", "coordinates": [-138.40682324130492, 78.17970663809406]}}, {"type": "Feature", "properties": {"norad_id": 33881, "name": "IRIDIUM 33 DEB", "group": "iridium-33-debris", "lat": -63.33261013129436, "lon": -65.04892071509744, "alt_km": 690.9398671941535, "timestamp": "2025-12-10T11:33:53.769125+00:00", "meta": {"OBJECT_NAME": "IRIDIUM 33 DEB", "OBJECT_ID": "1997-051BA", "EPOCH": "2025-12-09T10:01:33.652704", "MEAN_MOTION": 14.56473135, "ECCENTRICITY": 0.00614296, "INCLINATION": 86.3869, "RA_OF_ASC_NODE": 108.1859, "ARG_OF_PERICENTER": 185.4197, "MEAN_ANOMALY": 241.4979, "EPHEMERIS_TYPE": 0, "CLASSIFICATION_TYPE": "U", "NORAD_CAT_ID": 33881, "ELEMENT_SET_NO": 999, "REV_AT_EPOCH": 87452, "BSTAR": 0.0028428363, "MEAN_MOTION_DOT": 0.00012995, "MEAN_MOTION_DDOT": 0}, "tle": {"line1": "1 33881U 97051BA  25343.41775061  .00012995  00000+0  28428-2 0  9994", "line2": "2 33881  86.3869 108.1859 0061429 185.4197 241.4979 14.56473135874525"}}, "geometry": {"type": "Point", "coordinates": [-65.04892071509744, -63.33261013129436]}}, {"type": "Feature", "properties": {"norad_id": 33884, "name": "IRIDIUM 33 DEB", "group": "iridium-33-debris", "lat": 20.245695375471318, "lon": 12.179153002947892, "alt_km": 633.144723585101, "timestamp": "2025-12-10T11:33:53.769135+00:00", "meta": {"OBJECT_NAME": "IRIDIUM 33 DEB", "OBJECT_ID": "1997-051BD", "EPOCH": "2025-12-10T01:50:22.540128", "MEAN_MOTION": 14.77342493, "ECCENTRICITY": 0.0009962, "INCLINATION": 86.3694, "RA_OF_ASC_NODE": 11.0201, "ARG_OF_PERICENTER": 333.9482, "MEAN_ANOMALY": 52.6252, "EPHEMERIS_TYPE": 0, "CLASSIFICATION_TYPE": "U", "NORAD_CAT_ID": 33884, "ELEMENT_SET_NO": 999, "REV_AT_EPOCH": 88808, "BSTAR": 0.0018953, "MEAN_MOTION_DOT": 0.00013509, "MEAN_MOTION_DDOT": 0}, "tle": {"line1": "1 33884U 97051BD  25344.07664977  .00013509  00000+0  18953-2 0  9997", "line2": "2 33884  86.3694  11.0201 0009962 333.9482  52.6252 14.77342493888085"}}, "geometry": {"type": "Point", "coordinates": [12.179153002947892, 20.245695375471318]}}, {"type": "Feature", "properties": {"norad_id": 33886, "name": "IRIDIUM 33 DEB", "group": "iridium-33-debris", "lat": -77.80644100004083, "lon": 51.15783879140866, "alt_km": 771.5603827444866, "timestamp": "2025-12-10T11:33:53.769146+00:00", "meta": {"OBJECT_NAME": "IRIDIUM 33 DEB", "OBJECT_ID": "1997-051BF", "EPOCH": "2025-12-10T03:51:30.515040", "MEAN_MOTION": 14.36046981, "ECCENTRICITY": 0.0012165, "INCLINATION": 86.3829, "RA_OF_ASC_NODE": 68.3142, "ARG_OF_PERICENTER": 251.7113, "MEAN_ANOMALY": 170.9201, "EPHEMERIS_TYPE": 0, "CLASSIFICATION_TYPE": "U", "NORAD_CAT_ID": 33886, "ELEMENT_SET_NO": 999, "REV_AT_EPOCH": 88015, "BSTAR": 0.00030983, "MEAN_MOTION_DOT": 9.2e-06, "MEAN_MOTION_DDOT": 0}, "tle": {"line1": "1 33886U 97051BF  25344.16076985  .00000920  00000+0  30983-3 0  9996", "line2": "2 33886  86.3829  68.3142 0012165 251.7113 170.9201 14.36046981880159"}}, "geometry": {"type": "Point", "coordinates": [51.15783879140866, -77.80644100004083]}}, {"type": "Feature", "properties": {"norad_id": 33887, "name": "IRIDIUM 33 DEB", "group": "iridium-33-debris", "lat": -28.388292567298766, "lon": -173.6329228008506, "alt_km": 770.9700941380934, "timestamp": "2025-12-10T11:33:53.769156+00:00", "meta": {"OBJECT_NAME": "IRIDIUM 33 DEB", "OBJECT_ID": "1997-051BG", "EPOCH": "2025-12-10T02:30:54.279360", "MEAN_MOTION": 14.37217251, "ECCENTRICITY": 0.0004238, "INCLINATION": 86.3046, "RA_OF_ASC_NODE": 4.5279, "ARG_OF_PERICENTER": 238.4747, "MEAN_ANOMALY": 180.1342, "EPHEMERIS_TYPE": 0, "CLASSIFICATION_TYPE": "U", "NORAD_CAT_ID": 33887, "ELEMENT_SET_NO": 999, "REV_AT_EPOCH": 88127, "BSTAR": 0.00021226, "MEAN_MOTION_DOT": 6.51e-06, "MEAN_MOTION_DDOT": 0}, "tle": {"line1": "1 33887U 97051BG  25344.10479490  .00000651  00000+0  21226-3 0  9990", "line2": "2 33887  86.3046   4.5279 0004238 238.4747 180.1342 14.37217251881275"}}, "geometry": {"type": "Point", "coordinates": [-173.6329228008506, -28.388292567298766]}}, {"type": "Feature", "properties": {"norad_id": 33953, "name": "IRIDIUM 33 DEB", "group": "iridium-33-debris", "lat": -82.03672459142761, "lon": 27.883566422328467, "alt_km": 728.6609611486083, "timestamp": "2025-12-10T11:33:53.769167+00:00", "meta": {"OBJECT_NAME": "IRIDIUM 33 DEB", "OBJECT_ID": "1997-051BN", "EPOCH": "2025-12-09T23:18:17.054208", "MEAN_MOTION": 14.5527898, "ECCENTRICITY": 0.0018458, "INCLINATION": 86.384, "RA_OF_ASC_NODE": 54.9808, "ARG_OF_PERICENTER": 111.2598, "MEAN_ANOMALY": 11.2257, "EPHEMERIS_TYPE": 0, "CLASSIFICATION_TYPE": "U", "NORAD_CAT_ID": 33953, "ELEMENT_SET_NO": 999, "REV_AT_EPOCH": 88263, "BSTAR": 0.0016887, "MEAN_MOTION_DOT": 7.353e-05, "MEAN_MOTION_DDOT": 0}, "tle": {"line1": "1 33953U 97051BN  25343.97103072  .00007353  00000+0  16887-2 0  9990", "line2": "2 33953  86.3840  54.9808 0018458 111.2598  11.2257 14.55278980882635"}}, "geometry": {"type": "Point", "coordinates": [27.883566422328467, -82.03672459142761]}}, {"type": "Feature", "properties": {"norad_id": 33960, "name": "IRIDIUM 33 DEB", "group": "iridium-33-debris", "lat": -19.640293291959335, "lon": 111.91884590515185, "alt_km": 622.5437087730161, "timestamp": "2025-12-10T11:33:53.769177+00:00", "meta": {"OBJECT_NAME": "IRIDIUM 33 DEB", "OBJECT_ID": "1997-051BV", "EPOCH": "2025-12-09T20:12:56.328768", "MEAN_MOTION": 14.84936336, "ECCENTRICITY": 0.0007341, "INCLINATION": 86.2533, "RA_OF_ASC_NODE": 290.8802, "ARG_OF_PERICENTER": 66.8511, "MEAN_ANOMALY": 315.9506, "EPHEMERIS_TYPE": 0, "CLASSIFICATION_TYPE": "U", "NORAD_CAT_ID": 33960, "ELEMENT_SET_NO": 999, "REV_AT_EPOCH": 88824, "BSTAR": 0.0044424, "MEAN_MOTION_DOT": 0.00038025, "MEAN_MOTION_DDOT": 0}, "tle": {"line1": "1 33960U 97051BV  25343.84231862  .00038025  00000+0  44424-2 0  9991", "line2": "2 33960  86.2533 290.8802 0007341  66.8511 315.9506 14.84936336888247"}}, "geometry": {"type": "Point", "coordinates": [111.91884590515185, -19.640293291959335]}}, {"type": "Feature", "properties": {"norad_id": 33966, "name": "IRIDIUM 33 DEB", "group": "iridium-33-debris", "lat": 86.34935953109611, "lon": 128.43338555398407, "alt_km": 720.9655383356267, "timestamp": "2025-12-10T11:33:53.769187+00:00", "meta": {"OBJECT_NAME": "IRIDIUM 33 DEB", "OBJECT_ID": "1997-051CB", "EPOCH": "2025-12-10T04:46:33.396096", "MEAN_MOTION": 14.49577147, "ECCENTRICITY": 0.0007113, "INCLINATION": 86.3923, "RA_OF_ASC_NODE": 47.1175, "ARG_OF_PERICENTER": 196.7181, "MEAN_ANOMALY": 217.5881, "EPHEMERIS_TYPE": 0, "CLASSIFICATION_TYPE": "U", "NORAD_CAT_ID": 33966, "ELEMENT_SET_NO": 999, "REV_AT_EPOCH": 88405, "BSTAR": 0.00077782, "MEAN_MOTION_DOT": 3.004e-05, "MEAN_MOTION_DDOT": 0}, "tle": {"line1": "1 33966U 97051CB  25344.19899764  .00003004  00000+0  77782-3 0  9990", "line2": "2 33966  86.3923  47.1175 0007113 196.7181 217.5881 14.49577147884056"}}, "geometry": {"type": "Point", "coordinates": [128.43338555398407, 86.34935953109611]}}, {"type": "Feature", "properties": {"norad_id": 34071, "name": "IRIDIUM 33 DEB", "group": "iridium-33-debris", "lat": 22.7949773929602, "lon": -162.72935410261184, "alt_km": 722.0928485207942, "timestamp": "2025-12-10T11:33:53.769197+00:00", "meta": {"OBJECT_NAME": "IRIDIUM 33 DEB", "OBJECT_ID": "1997-051CE", "EPOCH": "2025-12-10T04:12:57.800736", "MEAN_MOTION": 14.49446017, "ECCENTRICITY": 0.0009847, "INCLINATION": 86.3457, "RA_OF_ASC_NODE": 18.9427, "ARG_OF_PERICENTER": 114.4386, "MEAN_ANOMALY": 245.7847, "EPHEMERIS_TYPE": 0, "CLASSIFICATION_TYPE": "U", "NORAD_CAT_ID": 34071, "ELEMENT_SET_NO": 999, "REV_AT_EPOCH": 88297, "BSTAR": 0.00080363, "MEAN_MOTION_DOT": 3.096e-05, "MEAN_MOTION_DDOT": 0}, "tle": {"line1": "1 34071U 97051CE  25344.17566899  .00003096  00000+0  80363-3 0  9996", "line2": "2 34071  86.3457  18.9427 0009847 114.4386 245.7847 14.49446017882977"}}, "geometry": {"type": "Point", "coordinates": [-162.72935410261184, 22.7949773929602]}}]}